{"type":"FeatureCollection","features":[{"type":"Feature","properties":{"codigo_ibge":3101904},"geometry":{"type":"Polygon","coordinates":[[[-46.4574,-20.9737],[-46.4429,-20.973],[-46.437,-20.9693],[-46.4221,-20.9677],[-46.4122,-20.962],[-46.3943,-20.9694],[-46.3985,-20.981],[-46.3849,-20.9816],[-46.369,-20.989],[-46.3583,-20.9896],[-46.3391,-20.97],[-46.3482,-20.9524],[-46.3482,-20.9374],[-46.3343,-20.9367],[-46.3113,-20.9483],[-46.3009,-20.9454],[-46.2877,-20.9454],[-46.288,-20.9323],[-46.2803,-20.9281],[-46.2779,-20.9217],[-46.2671,-20.9192],[-46.261,-20.9115],[-46.2632,-20.9046],[-46.261,-20.8928],[-46.2516,-20.8928],[-46.259,-20.8764],[-46.268,-20.866],[-46.2759,-20.8676],[-46.2814,-20.8629],[-46.2971,-20.8581],[-46.2902,-20.8372],[-46.3002,-20.8301],[-46.3012,-20.8226],[-46.2937,-20.8187],[-46.302,-20.799],[-46.2956,-20.7872],[-46.2955,-20.7786],[-46.305,-20.7779],[-46.312,-20.7667],[-46.3179,-20.7645],[-46.3192,-20.757],[-46.3267,-20.7584],[-46.3316,-20.7483],[-46.329,-20.7352],[-46.3336,-20.7247],[-46.3354,-20.713],[-46.3482,-20.7087],[-46.3545,-20.6994],[-46.3579,-20.6864],[-46.3696,-20.6811],[-46.3771,-20.6658],[-46.3855,-20.6656],[-46.399,-20.6738],[-46.3989,-20.6874],[-46.3808,-20.6929],[-46.3796,-20.6973],[-46.3866,-20.7072],[-46.3904,-20.7054],[-46.3992,-20.7165],[-46.394,-20.7194],[-46.394,-20.7281],[-46.4063,-20.7379],[-46.4062,-20.7472],[-46.3974,-20.7527],[-46.404,-20.7604],[-46.4057,-20.7704],[-46.4019,-20.775],[-46.4092,-20.783],[-46.4075,-20.7956],[-46.4122,-20.8064],[-46.4275,-20.8057],[-46.4394,-20.8137],[-46.44,-20.8294],[-46.4541,-20.8422],[-46.4674,-20.868],[-46.469,-20.8855],[-46.4782,-20.8946],[-46.487,-20.8973],[-46.4874,-20.9032],[-46.4957,-20.9093],[-46.5038,-20.9252],[-46.526,-20.9223],[-46.5282,-20.9306],[-46.5133,-20.9421],[-46.5078,-20.9376],[-46.5007,-20.9388],[-46.4955,-20.9477],[-46.4813,-20.9503],[-46.4733,-20.9492],[-46.4678,-20.9594],[-46.4683,-20.9669],[-46.4574,-20.9737]]]}},{"type":"Feature","properties":{"codigo_ibge":3102001},"geometry":{"type":"Polygon","coordinates":[[[-46.2405,-21.2566],[-46.2082,-21.267],[-46.1918,-21.2773],[-46.1754,-21.2759],[-46.1748,-21.2855],[-46.1612,-21.2923],[-46.1495,-21.2945],[-46.1355,-21.3065],[-46.1277,-21.3175],[-46.1178,-21.3211],[-46.0982,-21.3176],[-46.0626,-21.3065],[-46.0555,-21.3079],[-46.0544,-21.2993],[-46.0627,-21.2856],[-46.0623,-21.2815],[-46.0444,-21.2789],[-46.0383,-21.2761],[-46.0317,-21.259],[-46.0171,-21.2493],[-46.0243,-21.2342],[-46.0387,-21.2176],[-46.0447,-21.2152],[-46.0511,-21.195],[-46.0437,-21.1922],[-46.0477,-21.185],[-46.0408,-21.1783],[-46.0438,-21.1701],[-46.0508,-21.166],[-46.054,-21.156],[-46.0615,-21.1463],[-46.0701,-21.147],[-46.0826,-21.1481],[-46.093,-21.1446],[-46.107,-21.1473],[-46.1175,-21.1467],[-46.1455,-21.1545],[-46.1484,-21.1657],[-46.16,-21.1674],[-46.1758,-21.184],[-46.1766,-21.1969],[-46.1872,-21.1943],[-46.1967,-21.1879],[-46.2165,-21.1809],[-46.2204,-21.177],[-46.2313,-21.177],[-46.2396,-21.1866],[-46.2846,-21.1614],[-46.2923,-21.1533],[-46.3019,-21.16],[-46.302,-21.175],[-46.3062,-21.1797],[-46.32,-21.1838],[-46.333,-21.1787],[-46.3493,-21.1794],[-46.3421,-21.1927],[-46.3368,-21.1937],[-46.3339,-21.2031],[-46.3225,-21.2026],[-46.3151,-21.2113],[-46.3054,-21.2159],[-46.2929,-21.2177],[-46.2845,-21.2368],[-46.2763,-21.2389],[-46.2649,-21.2491],[-46.2598,-21.2567],[-46.2489,-21.2524],[-46.2405,-21.2566]]]}},{"type":"Feature","properties":{"codigo_ibge":3104106},"geometry":{"type":"Polygon","coordinates":[[[-46.9967,-21.3573],[-47.0083,-21.37],[-47.0058,-21.3852],[-47.0087,-21.3929],[-47.0162,-21.3965],[-47.0077,-21.4107],[-47.013,-21.4191],[-46.9872,-21.4237],[-46.9844,-21.4267],[-46.9637,-21.4184],[-46.9536,-21.4242],[-46.9491,-21.4196],[-46.9329,-21.425],[-46.8933,-21.4156],[-46.8846,-21.4072],[-46.8877,-21.3946],[-46.893,-21.3897],[-46.8933,-21.3821],[-46.8833,-21.3811],[-46.883,-21.374],[-46.8884,-21.3684],[-46.8893,-21.3492],[-46.8736,-21.3338],[-46.8842,-21.3357],[-46.8886,-21.3278],[-46.8881,-21.3186],[-46.8919,-21.3127],[-46.8905,-21.3025],[-46.8785,-21.2909],[-46.8848,-21.2914],[-46.896,-21.284],[-46.9265,-21.2903],[-46.9301,-21.2953],[-46.9427,-21.2913],[-46.9552,-21.2785],[-46.9673,-21.2819],[-46.9741,-21.3024],[-46.9755,-21.3197],[-46.9797,-21.3275],[-46.9774,-21.3371],[-46.9842,-21.3401],[-46.9909,-21.3535],[-46.9967,-21.3573]]]}},{"type":"Feature","properties":{"codigo_ibge":3107604},"geometry":{"type":"Polygon","coordinates":[[[-46.552,-21.0858],[-46.5419,-21.0847],[-46.5328,-21.0792],[-46.5268,-21.0715],[-46.4907,-21.0709],[-46.4831,-21.0634],[-46.4665,-21.0594],[-46.4564,-21.0619],[-46.4387,-21.0574],[-46.4337,-21.0477],[-46.4259,-21.0408],[-46.4257,-21.0263],[-46.4346,-21.019],[-46.4515,-21.0125],[-46.4628,-20.9946],[-46.4615,-20.9806],[-46.4574,-20.9737],[-46.4683,-20.9669],[-46.4678,-20.9594],[-46.4733,-20.9492],[-46.4813,-20.9503],[-46.4955,-20.9477],[-46.5007,-20.9388],[-46.5078,-20.9376],[-46.5133,-20.9421],[-46.5282,-20.9306],[-46.5229,-20.9409],[-46.5267,-20.9532],[-46.531,-20.9567],[-46.5314,-20.9677],[-46.5416,-20.9726],[-46.5457,-20.9781],[-46.5609,-20.9716],[-46.5774,-20.9809],[-46.5872,-20.9785],[-46.5885,-20.9639],[-46.5956,-20.9659],[-46.6075,-20.9578],[-46.6066,-20.972],[-46.6135,-20.9709],[-46.618,-20.9737],[-46.6292,-20.972],[-46.6266,-20.9922],[-46.6337,-21.0019],[-46.6424,-21.0023],[-46.6368,-21.0112],[-46.6322,-21.013],[-46.6289,-21.0237],[-46.6196,-21.0255],[-46.6182,-21.0364],[-46.6085,-21.0441],[-46.5854,-21.0465],[-46.5617,-21.0623],[-46.5604,-21.0773],[-46.552,-21.0858]]]}},{"type":"Feature","properties":{"codigo_ibge":3112406},"geometry":{"type":"Polygon","coordinates":[[[-47.1428,-20.5656],[-47.1355,-20.5788],[-47.1324,-20.5908],[-47.1228,-20.5947],[-47.1257,-20.603],[-47.1233,-20.6127],[-47.1085,-20.6219],[-47.1127,-20.6381],[-47.0975,-20.6439],[-47.0968,-20.6618],[-47.1027,-20.6699],[-47.101,-20.682],[-47.0957,-20.6863],[-47.092,-20.6969],[-47.0863,-20.6989],[-47.0764,-20.7133],[-47.0616,-20.7173],[-47.0567,-20.7232],[-47.0422,-20.722],[-47.0285,-20.7313],[-47.018,-20.7345],[-47.0144,-20.7468],[-46.9995,-20.7556],[-46.985,-20.7597],[-46.9806,-20.769],[-46.9631,-20.7932],[-46.9536,-20.7924],[-46.944,-20.7681],[-46.9438,-20.7596],[-46.9372,-20.7578],[-46.9364,-20.7466],[-46.9288,-20.7434],[-46.9267,-20.7335],[-46.9158,-20.726],[-46.9161,-20.7139],[-46.9131,-20.7041],[-46.9049,-20.7015],[-46.9035,-20.6875],[-46.9163,-20.6848],[-46.9172,-20.6791],[-46.926,-20.6754],[-46.9347,-20.6827],[-46.9462,-20.6861],[-46.9625,-20.686],[-46.9666,-20.6761],[-46.9746,-20.6764],[-46.9906,-20.683],[-46.998,-20.6772],[-46.9982,-20.6656],[-47.0017,-20.6585],[-46.9959,-20.6437],[-46.9983,-20.6338],[-47.0081,-20.6133],[-47.0208,-20.599],[-47.0203,-20.5895],[-47.0291,-20.5832],[-47.0323,-20.5688],[-47.0371,-20.5621],[-47.0431,-20.5442],[-47.0556,-20.5343],[-47.0676,-20.528],[-47.0691,-20.5346],[-47.0799,-20.5432],[-47.0855,-20.5389],[-47.113,-20.538],[-47.1177,-20.5477],[-47.1289,-20.5524],[-47.1377,-20.5611],[-47.1428,-20.5656]]]}},{"type":"Feature","properties":{"codigo_ibge":3112802},"geometry":{"type":"Polygon","coordinates":[[[-46.1289,-20.7173],[-46.1191,-20.7144],[-46.106,-20.7067],[-46.0977,-20.6973],[-46.0845,-20.6911],[-46.0662,-20.6946],[-46.0525,-20.7016],[-46.0255,-20.6943],[-46.0202,-20.6858],[-46.0186,-20.6752],[-46.005,-20.6588],[-46.0029,-20.6471],[-45.9931,-20.6369],[-45.9955,-20.6257],[-45.9895,-20.6138],[-45.978,-20.6117],[-45.9768,-20.6015],[-45.9676,-20.5881],[-45.9657,-20.5746],[-45.9749,-20.5655],[-45.9892,-20.5585],[-46.0016,-20.5629],[-46.0167,-20.5617],[-46.0284,-20.5554],[-46.0299,-20.5431],[-46.0451,-20.5387],[-46.0551,-20.5436],[-46.0592,-20.5552],[-46.0671,-20.5544],[-46.0815,-20.5477],[-46.0878,-20.54],[-46.1032,-20.5325],[-46.1098,-20.5346],[-46.1117,-20.5428],[-46.1235,-20.5468],[-46.131,-20.5592],[-46.1392,-20.5548],[-46.1475,-20.5689],[-46.1654,-20.558],[-46.1687,-20.5502],[-46.1792,-20.5497],[-46.187,-20.5431],[-46.1969,-20.5416],[-46.2044,-20.5257],[-46.2045,-20.5196],[-46.2206,-20.5108],[-46.2219,-20.5055],[-46.2335,-20.5126],[-46.2481,-20.5079],[-46.2539,-20.512],[-46.2617,-20.5285],[-46.2726,-20.5272],[-46.2873,-20.5364],[-46.2862,-20.5454],[-46.289,-20.5601],[-46.2972,-20.5569],[-46.3157,-20.5537],[-46.3368,-20.5534],[-46.3398,-20.5574],[-46.3227,-20.5642],[-46.3101,-20.5673],[-46.3037,-20.5738],[-46.3049,-20.5834],[-46.3016,-20.5959],[-46.2871,-20.6111],[-46.2906,-20.6161],[-46.2845,-20.6231],[-46.2876,-20.632],[-46.2837,-20.6477],[-46.2753,-20.6601],[-46.2613,-20.6527],[-46.2555,-20.6539],[-46.2543,-20.6791],[-46.2512,-20.6845],[-46.2407,-20.688],[-46.2184,-20.682],[-46.2104,-20.6821],[-46.1984,-20.6936],[-46.1863,-20.6981],[-46.1753,-20.6919],[-46.165,-20.6906],[-46.1504,-20.6949],[-46.1289,-20.7173]]]}},{"type":"Feature","properties":{"codigo_ibge":3114402},"geometry":{"type":"Polygon","coordinates":[[[-46.3503,-21.0132],[-46.3409,-21.0162],[-46.3348,-21.0139],[-46.3316,-21.0061],[-46.3259,-21.0037],[-46.3124,-21.008],[-46.3011,-21.0085],[-46.2927,-20.9978],[-46.2725,-21.0075],[-46.2628,-21.0067],[-46.2462,-21.017],[-46.2377,-21.0274],[-46.235,-21.0369],[-46.2157,-21.0364],[-46.2046,-21.0421],[-46.1976,-21.0399],[-46.185,-21.0476],[-46.18,-21.0464],[-46.1711,-21.0517],[-46.1531,-21.0499],[-46.1431,-21.0524],[-46.1361,-21.0657],[-46.1307,-21.0692],[-46.1347,-21.0795],[-46.1239,-21.0879],[-46.1206,-21.0959],[-46.1074,-21.0982],[-46.0936,-21.0948],[-46.0943,-21.1031],[-46.0848,-21.1123],[-46.0851,-21.1228],[-46.0795,-21.1309],[-46.0698,-21.134],[-46.0667,-21.1388],[-46.0701,-21.147],[-46.0615,-21.1463],[-46.054,-21.156],[-46.0508,-21.166],[-46.0438,-21.1701],[-46.0408,-21.1783],[-46.0477,-21.185],[-46.0437,-21.1922],[-46.0209,-21.1859],[-46.0154,-21.1689],[-46.0099,-21.1631],[-46.0038,-21.1673],[-45.9806,-21.1553],[-45.9734,-21.14],[-45.9665,-21.1167],[-45.9631,-21.0859],[-45.9582,-21.0783],[-45.9397,-21.0601],[-45.9218,-21.0391],[-45.9035,-21.0221],[-45.9087,-21.0108],[-45.9248,-21.0046],[-45.9283,-20.9997],[-45.91,-20.9787],[-45.9081,-20.9707],[-45.9023,-20.9665],[-45.8982,-20.9546],[-45.8921,-20.9543],[-45.8879,-20.9431],[-45.8936,-20.9364],[-45.8952,-20.9251],[-45.9055,-20.9214],[-45.9149,-20.9223],[-45.9298,-20.9293],[-45.9383,-20.9299],[-45.9448,-20.9096],[-45.9458,-20.8945],[-45.9412,-20.8906],[-45.9451,-20.8862],[-45.9651,-20.8837],[-45.9747,-20.871],[-45.984,-20.87],[-46.0245,-20.8584],[-46.0399,-20.8594],[-46.0513,-20.8627],[-46.0521,-20.8353],[-46.056,-20.8274],[-46.063,-20.8232],[-46.1055,-20.8158],[-46.1194,-20.8154],[-46.1301,-20.818],[-46.1506,-20.8377],[-46.1643,-20.8449],[-46.1711,-20.8432],[-46.1744,-20.8355],[-46.1715,-20.8102],[-46.1668,-20.8009],[-46.1928,-20.7976],[-46.1994,-20.8044],[-46.2128,-20.8112],[-46.2275,-20.8293],[-46.2457,-20.8314],[-46.2505,-20.8418],[-46.2585,-20.8474],[-46.2546,-20.8614],[-46.2574,-20.8676],[-46.268,-20.866],[-46.259,-20.8764],[-46.2516,-20.8928],[-46.261,-20.8928],[-46.2632,-20.9046],[-46.261,-20.9115],[-46.2671,-20.9192],[-46.2779,-20.9217],[-46.2803,-20.9281],[-46.288,-20.9323],[-46.2877,-20.9454],[-46.3009,-20.9454],[-46.3113,-20.9483],[-46.3343,-20.9367],[-46.3482,-20.9374],[-46.3482,-20.9524],[-46.3391,-20.97],[-46.3583,-20.9896],[-46.3506,-21.003],[-46.3503,-21.0132]]]}},{"type":"Feature","properties":{"codigo_ibge":3115102},"geometry":{"type":"Polygon","coordinates":[[[-47.0676,-20.528],[-47.0556,-20.5343],[-47.0431,-20.5442],[-47.0371,-20.5621],[-47.0323,-20.5688],[-47.0291,-20.5832],[-47.0203,-20.5895],[-47.0208,-20.599],[-47.0081,-20.6133],[-46.9983,-20.6338],[-46.9959,-20.6437],[-47.0017,-20.6585],[-46.9982,-20.6656],[-46.998,-20.6772],[-46.9906,-20.683],[-46.9746,-20.6764],[-46.9666,-20.6761],[-46.9625,-20.686],[-46.9462,-20.6861],[-46.9347,-20.6827],[-46.926,-20.6754],[-46.9172,-20.6791],[-46.9163,-20.6848],[-46.9035,-20.6875],[-46.9049,-20.7015],[-46.9131,-20.7041],[-46.9161,-20.7139],[-46.9158,-20.726],[-46.9267,-20.7335],[-46.9288,-20.7434],[-46.9364,-20.7466],[-46.9372,-20.7578],[-46.9308,-20.7484],[-46.9206,-20.7495],[-46.912,-20.7467],[-46.9005,-20.7302],[-46.8898,-20.7301],[-46.8867,-20.7253],[-46.8693,-20.7284],[-46.8654,-20.7179],[-46.8594,-20.7189],[-46.8478,-20.7106],[-46.8431,-20.7012],[-46.8463,-20.6923],[-46.8412,-20.6813],[-46.8368,-20.6752],[-46.8453,-20.658],[-46.8402,-20.6534],[-46.8448,-20.642],[-46.8318,-20.6308],[-46.8315,-20.6094],[-46.8424,-20.6017],[-46.8367,-20.5919],[-46.8335,-20.5807],[-46.8271,-20.5827],[-46.8247,-20.5745],[-46.8058,-20.5598],[-46.8032,-20.5501],[-46.8083,-20.5355],[-46.818,-20.5408],[-46.8237,-20.5328],[-46.8531,-20.5324],[-46.8517,-20.5221],[-46.8551,-20.5154],[-46.8396,-20.509],[-46.8462,-20.4987],[-46.8568,-20.4962],[-46.8622,-20.483],[-46.8626,-20.4698],[-46.8512,-20.4628],[-46.8349,-20.4662],[-46.8289,-20.4622],[-46.8197,-20.4619],[-46.8183,-20.4455],[-46.8236,-20.4179],[-46.8352,-20.41],[-46.8673,-20.4205],[-46.8806,-20.4207],[-46.9006,-20.4134],[-46.9083,-20.407],[-46.9129,-20.3976],[-46.9156,-20.374],[-46.9239,-20.3607],[-46.9388,-20.3611],[-46.9482,-20.3746],[-46.9563,-20.3787],[-46.9662,-20.3796],[-46.9788,-20.3731],[-46.9852,-20.3794],[-47.0014,-20.3872],[-47.0191,-20.3856],[-47.0281,-20.3922],[-47.0172,-20.417],[-47.0142,-20.4291],[-47.0072,-20.4464],[-47.0074,-20.463],[-47.022,-20.4654],[-47.0339,-20.475],[-47.0397,-20.4876],[-47.0394,-20.495],[-47.0451,-20.5026],[-47.0412,-20.5087],[-47.0482,-20.5178],[-47.0604,-20.5155],[-47.0676,-20.528]]]}},{"type":"Feature","properties":{"codigo_ibge":3117108},"geometry":{"type":"Polygon","coordinates":[[[-46.2923,-21.1533],[-46.2846,-21.1614],[-46.2396,-21.1866],[-46.2313,-21.177],[-46.2204,-21.177],[-46.2165,-21.1809],[-46.1967,-21.1879],[-46.1872,-21.1943],[-46.1766,-21.1969],[-46.1758,-21.184],[-46.16,-21.1674],[-46.1484,-21.1657],[-46.1455,-21.1545],[-46.1175,-21.1467],[-46.107,-21.1473],[-46.093,-21.1446],[-46.0826,-21.1481],[-46.0701,-21.147],[-46.0667,-21.1388],[-46.0698,-21.134],[-46.0795,-21.1309],[-46.0851,-21.1228],[-46.0848,-21.1123],[-46.0943,-21.1031],[-46.0936,-21.0948],[-46.1074,-21.0982],[-46.1206,-21.0959],[-46.1239,-21.0879],[-46.1347,-21.0795],[-46.1307,-21.0692],[-46.1361,-21.0657],[-46.1431,-21.0524],[-46.1531,-21.0499],[-46.1711,-21.0517],[-46.18,-21.0464],[-46.185,-21.0476],[-46.1976,-21.0399],[-46.2046,-21.0421],[-46.2157,-21.0364],[-46.235,-21.0369],[-46.2377,-21.0274],[-46.2462,-21.017],[-46.2628,-21.0067],[-46.2725,-21.0075],[-46.2927,-20.9978],[-46.3011,-21.0085],[-46.3124,-21.008],[-46.3259,-21.0037],[-46.3316,-21.0061],[-46.3348,-21.0139],[-46.3409,-21.0162],[-46.3503,-21.0132],[-46.3555,-21.0206],[-46.3498,-21.0265],[-46.35,-21.0355],[-46.3458,-21.0399],[-46.3484,-21.0562],[-46.3552,-21.0593],[-46.3539,-21.0661],[-46.3467,-21.0678],[-46.3349,-21.0857],[-46.3397,-21.0908],[-46.3349,-21.098],[-46.3269,-21.0996],[-46.3261,-21.1059],[-46.311,-21.1121],[-46.3057,-21.1084],[-46.2951,-21.1083],[-46.2875,-21.1211],[-46.2933,-21.1237],[-46.2984,-21.1357],[-46.2923,-21.1533]]]}},{"type":"Feature","properties":{"codigo_ibge":3121209},"geometry":{"type":"Polygon","coordinates":[[[-46.8197,-20.4619],[-46.801,-20.4777],[-46.7892,-20.4829],[-46.778,-20.485],[-46.7584,-20.485],[-46.7477,-20.4893],[-46.7304,-20.4898],[-46.7092,-20.4926],[-46.6945,-20.4982],[-46.6575,-20.5336],[-46.6365,-20.5475],[-46.6155,-20.5588],[-46.6054,-20.5603],[-46.5945,-20.567],[-46.5767,-20.5634],[-46.5637,-20.5579],[-46.5501,-20.5486],[-46.5353,-20.5511],[-46.5326,-20.5436],[-46.5252,-20.5457],[-46.5179,-20.5377],[-46.5108,-20.5421],[-46.4996,-20.5344],[-46.5115,-20.5293],[-46.5104,-20.5203],[-46.5184,-20.5113],[-46.519,-20.4948],[-46.506,-20.4922],[-46.4999,-20.4834],[-46.4908,-20.4766],[-46.4809,-20.4771],[-46.4725,-20.484],[-46.4647,-20.4749],[-46.4709,-20.4665],[-46.4823,-20.4588],[-46.4835,-20.4475],[-46.4733,-20.4423],[-46.4642,-20.4431],[-46.4632,-20.4315],[-46.4727,-20.4233],[-46.4705,-20.4195],[-46.4836,-20.4056],[-46.4915,-20.4011],[-46.5008,-20.3914],[-46.4998,-20.3778],[-46.5197,-20.3582],[-46.5308,-20.3585],[-46.5411,-20.3707],[-46.5653,-20.3661],[-46.5718,-20.3423],[-46.5841,-20.336],[-46.6003,-20.3216],[-46.6067,-20.3233],[-46.6053,-20.3307],[-46.611,-20.3343],[-46.6347,-20.3239],[-46.6487,-20.3162],[-46.6682,-20.3032],[-46.6755,-20.3022],[-46.6956,-20.2772],[-46.7039,-20.2719],[-46.7125,-20.2732],[-46.7428,-20.2677],[-46.7558,-20.2685],[-46.7582,-20.2729],[-46.7763,-20.2747],[-46.7749,-20.2608],[-46.7827,-20.2419],[-46.7784,-20.2376],[-46.784,-20.2257],[-46.778,-20.2154],[-46.7898,-20.2085],[-46.8013,-20.2111],[-46.8214,-20.1952],[-46.8389,-20.1899],[-46.8671,-20.1776],[-46.8727,-20.1766],[-46.8837,-20.1826],[-46.8874,-20.1931],[-46.8964,-20.1925],[-46.9069,-20.1815],[-46.9338,-20.1704],[-46.9439,-20.1746],[-46.9542,-20.1739],[-46.9674,-20.1766],[-46.9727,-20.1897],[-46.9845,-20.1958],[-46.9934,-20.1938],[-47.0014,-20.1881],[-47.0113,-20.1941],[-47.0203,-20.1945],[-47.0349,-20.1881],[-47.0468,-20.188],[-47.0531,-20.193],[-47.0702,-20.1984],[-47.0922,-20.2],[-47.1092,-20.2038],[-47.1062,-20.2194],[-47.1067,-20.2314],[-47.1042,-20.247],[-47.1135,-20.2462],[-47.1159,-20.2563],[-47.111,-20.2624],[-47.0771,-20.2765],[-47.0594,-20.2873],[-47.0512,-20.3078],[-47.0459,-20.3112],[-47.0273,-20.3093],[-47.001,-20.315],[-46.9954,-20.3205],[-46.9811,-20.3417],[-46.9788,-20.3731],[-46.9662,-20.3796],[-46.9563,-20.3787],[-46.9482,-20.3746],[-46.9388,-20.3611],[-46.9239,-20.3607],[-46.9156,-20.374],[-46.9129,-20.3976],[-46.9083,-20.407],[-46.9006,-20.4134],[-46.8806,-20.4207],[-46.8673,-20.4205],[-46.8352,-20.41],[-46.8236,-20.4179],[-46.8183,-20.4455],[-46.8197,-20.4619]]]}},{"type":"Feature","properties":{"codigo_ibge":3126307},"geometry":{"type":"Polygon","coordinates":[[[-46.7056,-20.8407],[-46.7085,-20.8306],[-46.7222,-20.8229],[-46.7467,-20.8327],[-46.7551,-20.8342],[-46.7635,-20.85],[-46.7726,-20.8411],[-46.7808,-20.8383],[-46.7954,-20.8255],[-46.7957,-20.8149],[-46.805,-20.8037],[-46.8094,-20.8124],[-46.8219,-20.8166],[-46.8275,-20.8227],[-46.8368,-20.8213],[-46.8447,-20.8431],[-46.8502,-20.8501],[-46.8505,-20.8589],[-46.863,-20.8682],[-46.8643,-20.883],[-46.8746,-20.8857],[-46.8635,-20.8933],[-46.8615,-20.9011],[-46.8555,-20.9042],[-46.8449,-20.9156],[-46.8367,-20.9129],[-46.8311,-20.9222],[-46.8244,-20.9246],[-46.8074,-20.9185],[-46.8045,-20.9288],[-46.8102,-20.9376],[-46.8123,-20.9531],[-46.7981,-20.9757],[-46.7942,-20.97],[-46.7784,-20.9649],[-46.7619,-20.9733],[-46.7521,-20.969],[-46.753,-20.9511],[-46.7469,-20.939],[-46.7364,-20.938],[-46.7154,-20.929],[-46.708,-20.9311],[-46.6992,-20.9268],[-46.6929,-20.9182],[-46.6791,-20.9119],[-46.6732,-20.898],[-46.6718,-20.8847],[-46.6684,-20.8779],[-46.6723,-20.8682],[-46.6975,-20.8641],[-46.7068,-20.848],[-46.7056,-20.8407]]]}},{"type":"Feature","properties":{"codigo_ibge":3128105},"geometry":{"type":"Polygon","coordinates":[[[-45.9412,-20.8906],[-45.9255,-20.8871],[-45.9236,-20.8771],[-45.9179,-20.8712],[-45.911,-20.8706],[-45.8839,-20.8542],[-45.8743,-20.8609],[-45.864,-20.8582],[-45.8624,-20.8639],[-45.853,-20.8649],[-45.8446,-20.8611],[-45.8397,-20.8654],[-45.8268,-20.8564],[-45.8211,-20.8444],[-45.8091,-20.8451],[-45.8001,-20.8373],[-45.7878,-20.8359],[-45.7851,-20.8422],[-45.7747,-20.8437],[-45.7708,-20.852],[-45.7506,-20.8625],[-45.7501,-20.8712],[-45.7416,-20.8748],[-45.738,-20.8645],[-45.7176,-20.8761],[-45.7048,-20.8852],[-45.698,-20.8978],[-45.6918,-20.8972],[-45.6887,-20.8952],[-45.686,-20.8784],[-45.6794,-20.8615],[-45.6848,-20.852],[-45.6838,-20.8412],[-45.6738,-20.8197],[-45.6755,-20.8043],[-45.6833,-20.7974],[-45.7028,-20.7927],[-45.7137,-20.784],[-45.7331,-20.758],[-45.7362,-20.7488],[-45.7337,-20.7347],[-45.7467,-20.7256],[-45.7589,-20.7118],[-45.769,-20.7101],[-45.7812,-20.7165],[-45.7885,-20.7172],[-45.7988,-20.7086],[-45.8054,-20.6987],[-45.8289,-20.6746],[-45.8318,-20.6667],[-45.8376,-20.6697],[-45.85,-20.6689],[-45.8537,-20.6573],[-45.8617,-20.6564],[-45.8694,-20.6506],[-45.8766,-20.6499],[-45.8766,-20.6337],[-45.8888,-20.6236],[-45.8968,-20.626],[-45.9068,-20.6241],[-45.9093,-20.6186],[-45.9173,-20.6158],[-45.9211,-20.6065],[-45.9284,-20.6042],[-45.9415,-20.6078],[-45.961,-20.6037],[-45.9676,-20.5881],[-45.9768,-20.6015],[-45.978,-20.6117],[-45.9895,-20.6138],[-45.9955,-20.6257],[-45.9931,-20.6369],[-46.0029,-20.6471],[-46.005,-20.6588],[-46.0186,-20.6752],[-46.0202,-20.6858],[-46.0255,-20.6943],[-46.0525,-20.7016],[-46.0662,-20.6946],[-46.0845,-20.6911],[-46.0977,-20.6973],[-46.106,-20.7067],[-46.1191,-20.7144],[-46.1289,-20.7173],[-46.1326,-20.7227],[-46.1308,-20.7387],[-46.1354,-20.7469],[-46.1358,-20.7609],[-46.1413,-20.774],[-46.1668,-20.8009],[-46.1715,-20.8102],[-46.1744,-20.8355],[-46.1711,-20.8432],[-46.1643,-20.8449],[-46.1506,-20.8377],[-46.1301,-20.818],[-46.1194,-20.8154],[-46.1055,-20.8158],[-46.063,-20.8232],[-46.056,-20.8274],[-46.0521,-20.8353],[-46.0513,-20.8627],[-46.0399,-20.8594],[-46.0245,-20.8584],[-45.984,-20.87],[-45.9747,-20.871],[-45.9651,-20.8837],[-45.9451,-20.8862],[-45.9412,-20.8906]]]}},{"type":"Feature","properties":{"codigo_ibge":3129707},"geometry":{"type":"Polygon","coordinates":[[[-47.2235,-20.4911],[-47.2115,-20.5023],[-47.196,-20.504],[-47.1857,-20.5109],[-47.1635,-20.5189],[-47.1545,-20.5196],[-47.1435,-20.5353],[-47.1442,-20.5408],[-47.1388,-20.5521],[-47.1377,-20.5611],[-47.1289,-20.5524],[-47.1177,-20.5477],[-47.113,-20.538],[-47.0855,-20.5389],[-47.0799,-20.5432],[-47.0691,-20.5346],[-47.0676,-20.528],[-47.0604,-20.5155],[-47.0482,-20.5178],[-47.0412,-20.5087],[-47.0451,-20.5026],[-47.0394,-20.495],[-47.0397,-20.4876],[-47.0339,-20.475],[-47.022,-20.4654],[-47.0074,-20.463],[-47.0072,-20.4464],[-47.0142,-20.4291],[-47.0172,-20.417],[-47.0281,-20.3922],[-47.0191,-20.3856],[-47.0014,-20.3872],[-46.9852,-20.3794],[-46.9788,-20.3731],[-46.9811,-20.3417],[-46.9954,-20.3205],[-47.001,-20.315],[-47.0273,-20.3093],[-47.0459,-20.3112],[-47.0512,-20.3078],[-47.0594,-20.2873],[-47.0771,-20.2765],[-47.0961,-20.2824],[-47.1085,-20.2815],[-47.1241,-20.2869],[-47.1303,-20.2839],[-47.1423,-20.2642],[-47.1427,-20.245],[-47.1518,-20.2329],[-47.1601,-20.2334],[-47.1731,-20.24],[-47.1804,-20.239],[-47.1852,-20.2326],[-47.1982,-20.222],[-47.207,-20.2216],[-47.2178,-20.2254],[-47.2311,-20.2192],[-47.2326,-20.2275],[-47.2268,-20.231],[-47.2252,-20.2431],[-47.1992,-20.2614],[-47.1938,-20.2613],[-47.1924,-20.2713],[-47.184,-20.2908],[-47.1878,-20.2975],[-47.1857,-20.3074],[-47.188,-20.3209],[-47.211,-20.3296],[-47.2175,-20.337],[-47.2216,-20.3472],[-47.2153,-20.367],[-47.2052,-20.377],[-47.1929,-20.3827],[-47.1829,-20.3964],[-47.1909,-20.4013],[-47.1914,-20.4135],[-47.1958,-20.4352],[-47.1989,-20.439],[-47.1968,-20.4648],[-47.1864,-20.466],[-47.1747,-20.4761],[-47.1787,-20.4787],[-47.1903,-20.475],[-47.2043,-20.4771],[-47.2235,-20.4911]]]}},{"type":"Feature","properties":{"codigo_ibge":3130507},"geometry":{"type":"Polygon","coordinates":[[[-45.9081,-20.9707],[-45.8995,-20.9733],[-45.8933,-20.9793],[-45.8752,-20.9798],[-45.8668,-20.9855],[-45.8685,-20.995],[-45.8593,-21.0009],[-45.8446,-21.0011],[-45.8302,-21.0099],[-45.8113,-21.0133],[-45.7995,-21.0187],[-45.7917,-21.0291],[-45.763,-21.0285],[-45.7592,-21.0153],[-45.7474,-21.0128],[-45.7438,-21.0167],[-45.7331,-21.0174],[-45.7317,-21.0114],[-45.7225,-21.0096],[-45.7171,-21.0037],[-45.706,-20.998],[-45.7085,-20.9899],[-45.6958,-20.979],[-45.6893,-20.9765],[-45.6902,-20.9689],[-45.683,-20.9621],[-45.6855,-20.9517],[-45.6929,-20.9483],[-45.6821,-20.9417],[-45.6829,-20.9152],[-45.6905,-20.9054],[-45.6918,-20.8972],[-45.698,-20.8978],[-45.7048,-20.8852],[-45.7176,-20.8761],[-45.738,-20.8645],[-45.7416,-20.8748],[-45.7501,-20.8712],[-45.7506,-20.8625],[-45.7708,-20.852],[-45.7747,-20.8437],[-45.7851,-20.8422],[-45.7878,-20.8359],[-45.8001,-20.8373],[-45.8091,-20.8451],[-45.8211,-20.8444],[-45.8268,-20.8564],[-45.8397,-20.8654],[-45.8446,-20.8611],[-45.853,-20.8649],[-45.8624,-20.8639],[-45.864,-20.8582],[-45.8743,-20.8609],[-45.8839,-20.8542],[-45.911,-20.8706],[-45.9179,-20.8712],[-45.9236,-20.8771],[-45.9255,-20.8871],[-45.9412,-20.8906],[-45.9458,-20.8945],[-45.9448,-20.9096],[-45.9383,-20.9299],[-45.9298,-20.9293],[-45.9149,-20.9223],[-45.9055,-20.9214],[-45.8952,-20.9251],[-45.8936,-20.9364],[-45.8879,-20.9431],[-45.8921,-20.9543],[-45.8982,-20.9546],[-45.9023,-20.9665],[-45.9081,-20.9707]]]}},{"type":"Feature","properties":{"codigo_ibge":3132909},"geometry":{"type":"Polygon","coordinates":[[[-46.9354,-21.0619],[-46.94,-21.0542],[-46.9582,-21.0487],[-46.956,-21.0397],[-46.965,-21.0326],[-46.9769,-21.0299],[-46.98,-21.0246],[-46.9887,-21.0247],[-46.9995,-21.0165],[-47.0193,-21.0137],[-47.024,-21.0087],[-47.0252,-20.997],[-47.0391,-21.0033],[-47.0529,-21.0029],[-47.0611,-21.0109],[-47.0754,-21.0181],[-47.0895,-21.0138],[-47.1081,-21.0148],[-47.1199,-21.0222],[-47.1239,-21.0299],[-47.1336,-21.0306],[-47.1479,-21.0355],[-47.1461,-21.0591],[-47.1394,-21.0694],[-47.1413,-21.0859],[-47.1336,-21.0903],[-47.1281,-21.0992],[-47.1148,-21.1047],[-47.1269,-21.1217],[-47.133,-21.1332],[-47.1268,-21.1443],[-47.1176,-21.1532],[-47.1048,-21.1465],[-47.0909,-21.1456],[-47.0805,-21.1485],[-47.0706,-21.131],[-47.0622,-21.1313],[-47.0577,-21.1269],[-47.0407,-21.1289],[-47.0378,-21.1382],[-47.0288,-21.1355],[-47.0091,-21.134],[-47.0011,-21.1302],[-46.9888,-21.1298],[-46.9826,-21.1265],[-46.9725,-21.1145],[-46.9605,-21.1058],[-46.9576,-21.098],[-46.9638,-21.0926],[-46.9626,-21.0873],[-46.9533,-21.0742],[-46.9448,-21.0663],[-46.9354,-21.0619]]]}},{"type":"Feature","properties":{"codigo_ibge":3133758},"geometry":{"type":"Polygon","coordinates":[[[-46.8412,-20.6813],[-46.8366,-20.6902],[-46.8249,-20.7043],[-46.8173,-20.7168],[-46.8064,-20.7131],[-46.7992,-20.7275],[-46.804,-20.7389],[-46.7945,-20.7507],[-46.7941,-20.7605],[-46.8025,-20.7695],[-46.8107,-20.7692],[-46.8034,-20.7838],[-46.7935,-20.7901],[-46.7865,-20.8049],[-46.7757,-20.8084],[-46.772,-20.813],[-46.7541,-20.8126],[-46.7493,-20.8208],[-46.7467,-20.8327],[-46.7222,-20.8229],[-46.7085,-20.8306],[-46.7056,-20.8407],[-46.698,-20.8371],[-46.6955,-20.8272],[-46.704,-20.8167],[-46.7081,-20.807],[-46.7043,-20.8028],[-46.7124,-20.79],[-46.7215,-20.7923],[-46.7229,-20.7739],[-46.7308,-20.7663],[-46.7288,-20.7571],[-46.736,-20.7535],[-46.729,-20.7466],[-46.7364,-20.7366],[-46.7266,-20.7294],[-46.728,-20.7158],[-46.7351,-20.7141],[-46.7295,-20.6912],[-46.7459,-20.6912],[-46.7555,-20.6805],[-46.7656,-20.6742],[-46.7655,-20.6657],[-46.7802,-20.6683],[-46.7843,-20.6639],[-46.7929,-20.6703],[-46.8108,-20.6688],[-46.8195,-20.6605],[-46.8138,-20.6516],[-46.8065,-20.6535],[-46.8088,-20.6398],[-46.8267,-20.6308],[-46.8318,-20.6308],[-46.8448,-20.642],[-46.8402,-20.6534],[-46.8453,-20.658],[-46.8368,-20.6752],[-46.8412,-20.6813]]]}},{"type":"Feature","properties":{"codigo_ibge":3134806},"geometry":{"type":"Polygon","coordinates":[[[-46.6732,-20.898],[-46.6791,-20.9119],[-46.6929,-20.9182],[-46.6992,-20.9268],[-46.708,-20.9311],[-46.7154,-20.929],[-46.7364,-20.938],[-46.7469,-20.939],[-46.753,-20.9511],[-46.7521,-20.969],[-46.7619,-20.9733],[-46.7784,-20.9649],[-46.7942,-20.97],[-46.7981,-20.9757],[-46.8,-20.983],[-46.8129,-20.997],[-46.8177,-21.0048],[-46.8236,-20.9977],[-46.8434,-20.9978],[-46.8451,-21.0022],[-46.8601,-21.0095],[-46.8684,-21.0106],[-46.8765,-21.0211],[-46.8835,-21.0359],[-46.8839,-21.0448],[-46.8942,-21.0608],[-46.8919,-21.0654],[-46.8839,-21.0643],[-46.8798,-21.0583],[-46.8679,-21.0524],[-46.8565,-21.0563],[-46.8597,-21.0609],[-46.8579,-21.0768],[-46.8509,-21.0746],[-46.8423,-21.0844],[-46.8359,-21.0879],[-46.8203,-21.0889],[-46.812,-21.0846],[-46.8039,-21.0984],[-46.7945,-21.1005],[-46.7998,-21.114],[-46.7894,-21.1268],[-46.7857,-21.1379],[-46.7854,-21.1519],[-46.7821,-21.1577],[-46.7707,-21.15],[-46.7626,-21.1374],[-46.7661,-21.1334],[-46.7598,-21.1182],[-46.7497,-21.1125],[-46.7388,-21.1097],[-46.7225,-21.1133],[-46.7179,-21.1081],[-46.6789,-21.1104],[-46.6618,-21.1066],[-46.6659,-21.099],[-46.6617,-21.0931],[-46.6488,-21.0886],[-46.6463,-21.0726],[-46.6419,-21.0703],[-46.6402,-21.0525],[-46.6536,-21.0427],[-46.6427,-21.0332],[-46.6368,-21.0112],[-46.6424,-21.0023],[-46.6337,-21.0019],[-46.6266,-20.9922],[-46.6292,-20.972],[-46.618,-20.9737],[-46.6135,-20.9709],[-46.6223,-20.9604],[-46.6228,-20.9511],[-46.6307,-20.9477],[-46.6326,-20.9402],[-46.6482,-20.9343],[-46.6541,-20.9255],[-46.6459,-20.923],[-46.6388,-20.9041],[-46.6478,-20.8907],[-46.6596,-20.8956],[-46.6644,-20.8936],[-46.6732,-20.898]]]}},{"type":"Feature","properties":{"codigo_ibge":3143203},"geometry":{"type":"Polygon","coordinates":[[[-46.9354,-21.0619],[-46.9448,-21.0663],[-46.9533,-21.0742],[-46.9626,-21.0873],[-46.9638,-21.0926],[-46.9576,-21.098],[-46.9605,-21.1058],[-46.9725,-21.1145],[-46.9826,-21.1265],[-46.9888,-21.1298],[-47.0011,-21.1302],[-47.0091,-21.134],[-47.0288,-21.1355],[-47.0378,-21.1382],[-47.0407,-21.1289],[-47.0577,-21.1269],[-47.0622,-21.1313],[-47.0706,-21.131],[-47.0805,-21.1485],[-47.0909,-21.1456],[-47.1048,-21.1465],[-47.1176,-21.1532],[-47.1236,-21.1679],[-47.1186,-21.1753],[-47.1185,-21.1859],[-47.1143,-21.1877],[-47.0957,-21.2097],[-47.0745,-21.2079],[-47.068,-21.2143],[-47.0723,-21.2258],[-47.0789,-21.2306],[-47.0761,-21.2412],[-47.0621,-21.2398],[-47.0523,-21.2465],[-47.0513,-21.2574],[-47.0442,-21.2674],[-47.0395,-21.2809],[-47.042,-21.2865],[-47.0356,-21.296],[-47.0298,-21.2996],[-47.0352,-21.31],[-47.021,-21.3216],[-47.0238,-21.3285],[-47.0165,-21.3424],[-47.0036,-21.3494],[-46.9967,-21.3573],[-46.9909,-21.3535],[-46.9842,-21.3401],[-46.9774,-21.3371],[-46.9797,-21.3275],[-46.9755,-21.3197],[-46.9741,-21.3024],[-46.9673,-21.2819],[-46.9552,-21.2785],[-46.9427,-21.2913],[-46.9301,-21.2953],[-46.9265,-21.2903],[-46.896,-21.284],[-46.8848,-21.2914],[-46.8785,-21.2909],[-46.8622,-21.2867],[-46.8608,-21.2781],[-46.8648,-21.2584],[-46.8575,-21.242],[-46.8518,-21.2402],[-46.8426,-21.226],[-46.8363,-21.2101],[-46.8405,-21.2023],[-46.8287,-21.1932],[-46.8269,-21.1873],[-46.8121,-21.176],[-46.8095,-21.1631],[-46.8115,-21.1598],[-46.8029,-21.1515],[-46.7975,-21.1536],[-46.7854,-21.1519],[-46.7857,-21.1379],[-46.7894,-21.1268],[-46.7998,-21.114],[-46.7945,-21.1005],[-46.8039,-21.0984],[-46.812,-21.0846],[-46.8203,-21.0889],[-46.8359,-21.0879],[-46.8423,-21.0844],[-46.8509,-21.0746],[-46.8579,-21.0768],[-46.8597,-21.0609],[-46.8565,-21.0563],[-46.8679,-21.0524],[-46.8798,-21.0583],[-46.8839,-21.0643],[-46.8919,-21.0654],[-46.9046,-21.0732],[-46.9129,-21.0666],[-46.9264,-21.0671],[-46.9354,-21.0619]]]}},{"type":"Feature","properties":{"codigo_ibge":3145109},"geometry":{"type":"Polygon","coordinates":[[[-46.2923,-21.1533],[-46.2984,-21.1357],[-46.2933,-21.1237],[-46.2875,-21.1211],[-46.2951,-21.1083],[-46.3057,-21.1084],[-46.311,-21.1121],[-46.3261,-21.1059],[-46.3269,-21.0996],[-46.3349,-21.098],[-46.3397,-21.0908],[-46.3349,-21.0857],[-46.3467,-21.0678],[-46.3539,-21.0661],[-46.3552,-21.0593],[-46.3484,-21.0562],[-46.3458,-21.0399],[-46.35,-21.0355],[-46.3498,-21.0265],[-46.3555,-21.0206],[-46.3503,-21.0132],[-46.3506,-21.003],[-46.3583,-20.9896],[-46.369,-20.989],[-46.3849,-20.9816],[-46.3985,-20.981],[-46.3943,-20.9694],[-46.4122,-20.962],[-46.4221,-20.9677],[-46.437,-20.9693],[-46.4429,-20.973],[-46.4574,-20.9737],[-46.4615,-20.9806],[-46.4628,-20.9946],[-46.4515,-21.0125],[-46.4346,-21.019],[-46.4257,-21.0263],[-46.4259,-21.0408],[-46.4337,-21.0477],[-46.4387,-21.0574],[-46.4564,-21.0619],[-46.4665,-21.0594],[-46.4831,-21.0634],[-46.4907,-21.0709],[-46.5268,-21.0715],[-46.5328,-21.0792],[-46.5419,-21.0847],[-46.552,-21.0858],[-46.5512,-21.0951],[-46.5435,-21.0967],[-46.5516,-21.1098],[-46.5509,-21.117],[-46.5429,-21.1199],[-46.5393,-21.1376],[-46.5506,-21.1506],[-46.5325,-21.1594],[-46.526,-21.1601],[-46.5135,-21.154],[-46.5089,-21.1553],[-46.4962,-21.173],[-46.4878,-21.1757],[-46.4868,-21.1672],[-46.473,-21.1684],[-46.4645,-21.1654],[-46.4603,-21.1723],[-46.446,-21.1705],[-46.4253,-21.1704],[-46.4216,-21.1839],[-46.4155,-21.195],[-46.3997,-21.1956],[-46.3948,-21.204],[-46.3856,-21.1928],[-46.3752,-21.1873],[-46.3585,-21.185],[-46.3493,-21.1794],[-46.333,-21.1787],[-46.32,-21.1838],[-46.3062,-21.1797],[-46.302,-21.175],[-46.3019,-21.16],[-46.2923,-21.1533]]]}},{"type":"Feature","properties":{"codigo_ibge":3147907},"geometry":{"type":"Polygon","coordinates":[[[-46.6135,-20.9709],[-46.6066,-20.972],[-46.6075,-20.9578],[-46.5956,-20.9659],[-46.5885,-20.9639],[-46.5872,-20.9785],[-46.5774,-20.9809],[-46.5609,-20.9716],[-46.5457,-20.9781],[-46.5416,-20.9726],[-46.5314,-20.9677],[-46.531,-20.9567],[-46.5267,-20.9532],[-46.5229,-20.9409],[-46.5282,-20.9306],[-46.526,-20.9223],[-46.5038,-20.9252],[-46.4957,-20.9093],[-46.4874,-20.9032],[-46.487,-20.8973],[-46.4782,-20.8946],[-46.469,-20.8855],[-46.4674,-20.868],[-46.4541,-20.8422],[-46.44,-20.8294],[-46.4394,-20.8137],[-46.4275,-20.8057],[-46.4122,-20.8064],[-46.4075,-20.7956],[-46.4092,-20.783],[-46.4019,-20.775],[-46.4057,-20.7704],[-46.404,-20.7604],[-46.3974,-20.7527],[-46.4062,-20.7472],[-46.4063,-20.7379],[-46.394,-20.7281],[-46.394,-20.7194],[-46.3992,-20.7165],[-46.3904,-20.7054],[-46.3866,-20.7072],[-46.3796,-20.6973],[-46.3808,-20.6929],[-46.3989,-20.6874],[-46.399,-20.6738],[-46.4081,-20.6772],[-46.4256,-20.6879],[-46.4358,-20.6913],[-46.4503,-20.6852],[-46.4566,-20.664],[-46.4685,-20.6596],[-46.4833,-20.6608],[-46.5005,-20.6591],[-46.5264,-20.6603],[-46.5399,-20.6562],[-46.5546,-20.6462],[-46.5652,-20.6427],[-46.5861,-20.6392],[-46.5942,-20.6314],[-46.5972,-20.6211],[-46.5864,-20.5981],[-46.5848,-20.5878],[-46.5905,-20.5795],[-46.5945,-20.567],[-46.6054,-20.5603],[-46.6155,-20.5588],[-46.6365,-20.5475],[-46.6575,-20.5336],[-46.6945,-20.4982],[-46.7092,-20.4926],[-46.7304,-20.4898],[-46.7477,-20.4893],[-46.7584,-20.485],[-46.778,-20.485],[-46.7892,-20.4829],[-46.801,-20.4777],[-46.8197,-20.4619],[-46.8289,-20.4622],[-46.8349,-20.4662],[-46.8512,-20.4628],[-46.8626,-20.4698],[-46.8622,-20.483],[-46.8568,-20.4962],[-46.8462,-20.4987],[-46.8396,-20.509],[-46.8551,-20.5154],[-46.8517,-20.5221],[-46.8531,-20.5324],[-46.8237,-20.5328],[-46.818,-20.5408],[-46.8083,-20.5355],[-46.8032,-20.5501],[-46.8058,-20.5598],[-46.8247,-20.5745],[-46.8271,-20.5827],[-46.8335,-20.5807],[-46.8367,-20.5919],[-46.8424,-20.6017],[-46.8315,-20.6094],[-46.8318,-20.6308],[-46.8267,-20.6308],[-46.8088,-20.6398],[-46.8065,-20.6535],[-46.8138,-20.6516],[-46.8195,-20.6605],[-46.8108,-20.6688],[-46.7929,-20.6703],[-46.7843,-20.6639],[-46.7802,-20.6683],[-46.7655,-20.6657],[-46.7656,-20.6742],[-46.7555,-20.6805],[-46.7459,-20.6912],[-46.7295,-20.6912],[-46.7351,-20.7141],[-46.728,-20.7158],[-46.7266,-20.7294],[-46.7364,-20.7366],[-46.729,-20.7466],[-46.736,-20.7535],[-46.7288,-20.7571],[-46.7308,-20.7663],[-46.7229,-20.7739],[-46.7215,-20.7923],[-46.7124,-20.79],[-46.7043,-20.8028],[-46.7081,-20.807],[-46.704,-20.8167],[-46.6955,-20.8272],[-46.698,-20.8371],[-46.7056,-20.8407],[-46.7068,-20.848],[-46.6975,-20.8641],[-46.6723,-20.8682],[-46.6684,-20.8779],[-46.6718,-20.8847],[-46.6732,-20.898],[-46.6644,-20.8936],[-46.6596,-20.8956],[-46.6478,-20.8907],[-46.6388,-20.9041],[-46.6459,-20.923],[-46.6541,-20.9255],[-46.6482,-20.9343],[-46.6326,-20.9402],[-46.6307,-20.9477],[-46.6228,-20.9511],[-46.6223,-20.9604],[-46.6135,-20.9709]]]}},{"type":"Feature","properties":{"codigo_ibge":3151503},"geometry":{"type":"Polygon","coordinates":[[[-45.9676,-20.5881],[-45.9585,-20.5882],[-45.9528,-20.5675],[-45.9428,-20.5608],[-45.9408,-20.5478],[-45.9306,-20.5498],[-45.9222,-20.5379],[-45.9086,-20.5358],[-45.9013,-20.54],[-45.8901,-20.5408],[-45.887,-20.5045],[-45.8876,-20.4822],[-45.8912,-20.4775],[-45.888,-20.4614],[-45.8889,-20.4548],[-45.8706,-20.4338],[-45.8601,-20.4288],[-45.8517,-20.4335],[-45.8443,-20.4257],[-45.8359,-20.4246],[-45.8356,-20.4143],[-45.8304,-20.3938],[-45.8371,-20.3845],[-45.8328,-20.3812],[-45.836,-20.3686],[-45.8346,-20.3583],[-45.8345,-20.3524],[-45.8406,-20.3517],[-45.8564,-20.3442],[-45.8685,-20.3427],[-45.8788,-20.3322],[-45.8979,-20.3318],[-45.9042,-20.3294],[-45.9237,-20.3412],[-45.9422,-20.3399],[-45.9512,-20.3439],[-45.9558,-20.3516],[-45.9621,-20.3453],[-45.976,-20.3383],[-45.9835,-20.3417],[-45.99,-20.3344],[-45.9975,-20.3405],[-46.0048,-20.3357],[-46.0119,-20.3368],[-46.0162,-20.3468],[-46.0241,-20.3545],[-46.0373,-20.356],[-46.0654,-20.3456],[-46.0708,-20.3505],[-46.0823,-20.3519],[-46.0802,-20.3388],[-46.0851,-20.3366],[-46.1075,-20.3403],[-46.1178,-20.3346],[-46.1316,-20.3403],[-46.1415,-20.3377],[-46.1514,-20.3554],[-46.162,-20.3582],[-46.1666,-20.3512],[-46.1726,-20.3522],[-46.1774,-20.344],[-46.1948,-20.3385],[-46.2149,-20.3381],[-46.2188,-20.3539],[-46.2137,-20.361],[-46.2243,-20.367],[-46.2409,-20.3655],[-46.2503,-20.3787],[-46.2576,-20.377],[-46.2663,-20.3821],[-46.2656,-20.4027],[-46.2674,-20.4167],[-46.2739,-20.4196],[-46.2751,-20.4293],[-46.2883,-20.4332],[-46.2927,-20.4428],[-46.2892,-20.451],[-46.2782,-20.4547],[-46.266,-20.4482],[-46.2601,-20.4509],[-46.2563,-20.4611],[-46.2448,-20.459],[-46.2314,-20.4446],[-46.2212,-20.4482],[-46.21,-20.4452],[-46.2169,-20.4749],[-46.2359,-20.4899],[-46.2357,-20.4937],[-46.2219,-20.5055],[-46.2206,-20.5108],[-46.2045,-20.5196],[-46.2044,-20.5257],[-46.1969,-20.5416],[-46.187,-20.5431],[-46.1792,-20.5497],[-46.1687,-20.5502],[-46.1654,-20.558],[-46.1475,-20.5689],[-46.1392,-20.5548],[-46.131,-20.5592],[-46.1235,-20.5468],[-46.1117,-20.5428],[-46.1098,-20.5346],[-46.1032,-20.5325],[-46.0878,-20.54],[-46.0815,-20.5477],[-46.0671,-20.5544],[-46.0592,-20.5552],[-46.0551,-20.5436],[-46.0451,-20.5387],[-46.0299,-20.5431],[-46.0284,-20.5554],[-46.0167,-20.5617],[-46.0016,-20.5629],[-45.9892,-20.5585],[-45.9749,-20.5655],[-45.9657,-20.5746],[-45.9676,-20.5881]]]}},{"type":"Feature","properties":{"codigo_ibge":3152907},"geometry":{"type":"Polygon","coordinates":[[[-46.8412,-20.6813],[-46.8463,-20.6923],[-46.8431,-20.7012],[-46.8478,-20.7106],[-46.8594,-20.7189],[-46.8654,-20.7179],[-46.8693,-20.7284],[-46.8867,-20.7253],[-46.8898,-20.7301],[-46.9005,-20.7302],[-46.912,-20.7467],[-46.9206,-20.7495],[-46.9308,-20.7484],[-46.9372,-20.7578],[-46.9438,-20.7596],[-46.944,-20.7681],[-46.9536,-20.7924],[-46.9631,-20.7932],[-46.9553,-20.8099],[-46.9472,-20.8178],[-46.9271,-20.8234],[-46.9199,-20.8228],[-46.9106,-20.8403],[-46.8958,-20.8567],[-46.8963,-20.8652],[-46.8816,-20.8776],[-46.8746,-20.8857],[-46.8643,-20.883],[-46.863,-20.8682],[-46.8505,-20.8589],[-46.8502,-20.8501],[-46.8447,-20.8431],[-46.8368,-20.8213],[-46.8275,-20.8227],[-46.8219,-20.8166],[-46.8094,-20.8124],[-46.805,-20.8037],[-46.7957,-20.8149],[-46.7954,-20.8255],[-46.7808,-20.8383],[-46.7726,-20.8411],[-46.7635,-20.85],[-46.7551,-20.8342],[-46.7467,-20.8327],[-46.7493,-20.8208],[-46.7541,-20.8126],[-46.772,-20.813],[-46.7757,-20.8084],[-46.7865,-20.8049],[-46.7935,-20.7901],[-46.8034,-20.7838],[-46.8107,-20.7692],[-46.8025,-20.7695],[-46.7941,-20.7605],[-46.7945,-20.7507],[-46.804,-20.7389],[-46.7992,-20.7275],[-46.8064,-20.7131],[-46.8173,-20.7168],[-46.8249,-20.7043],[-46.8366,-20.6902],[-46.8412,-20.6813]]]}},{"type":"Feature","properties":{"codigo_ibge":3162203},"geometry":{"type":"Polygon","coordinates":[[[-46.5945,-20.567],[-46.5905,-20.5795],[-46.5848,-20.5878],[-46.5864,-20.5981],[-46.5972,-20.6211],[-46.5942,-20.6314],[-46.5861,-20.6392],[-46.5652,-20.6427],[-46.5546,-20.6462],[-46.5399,-20.6562],[-46.5264,-20.6603],[-46.5005,-20.6591],[-46.4833,-20.6608],[-46.4685,-20.6596],[-46.4566,-20.664],[-46.4503,-20.6852],[-46.4358,-20.6913],[-46.4256,-20.6879],[-46.4081,-20.6772],[-46.399,-20.6738],[-46.3855,-20.6656],[-46.3771,-20.6658],[-46.3696,-20.6811],[-46.3579,-20.6864],[-46.3414,-20.6769],[-46.3405,-20.6705],[-46.3256,-20.6678],[-46.316,-20.6713],[-46.3058,-20.6627],[-46.2981,-20.66],[-46.2881,-20.6635],[-46.2753,-20.6601],[-46.2837,-20.6477],[-46.2876,-20.632],[-46.2845,-20.6231],[-46.2906,-20.6161],[-46.2871,-20.6111],[-46.3016,-20.5959],[-46.3049,-20.5834],[-46.3037,-20.5738],[-46.3101,-20.5673],[-46.3227,-20.5642],[-46.3398,-20.5574],[-46.3368,-20.5534],[-46.3468,-20.5474],[-46.3463,-20.5321],[-46.3648,-20.5278],[-46.373,-20.5102],[-46.3944,-20.4947],[-46.4025,-20.4932],[-46.417,-20.4843],[-46.418,-20.4727],[-46.4247,-20.4664],[-46.4271,-20.456],[-46.4234,-20.4506],[-46.4334,-20.4339],[-46.4222,-20.4228],[-46.4223,-20.4148],[-46.4393,-20.4081],[-46.446,-20.402],[-46.4531,-20.4046],[-46.4644,-20.3999],[-46.4736,-20.3908],[-46.4883,-20.3816],[-46.4998,-20.3778],[-46.5008,-20.3914],[-46.4915,-20.4011],[-46.4836,-20.4056],[-46.4705,-20.4195],[-46.4727,-20.4233],[-46.4632,-20.4315],[-46.4642,-20.4431],[-46.4733,-20.4423],[-46.4835,-20.4475],[-46.4823,-20.4588],[-46.4709,-20.4665],[-46.4647,-20.4749],[-46.4725,-20.484],[-46.4809,-20.4771],[-46.4908,-20.4766],[-46.4999,-20.4834],[-46.506,-20.4922],[-46.519,-20.4948],[-46.5184,-20.5113],[-46.5104,-20.5203],[-46.5115,-20.5293],[-46.4996,-20.5344],[-46.5108,-20.5421],[-46.5179,-20.5377],[-46.5252,-20.5457],[-46.5326,-20.5436],[-46.5353,-20.5511],[-46.5501,-20.5486],[-46.5637,-20.5579],[-46.5767,-20.5634],[-46.5945,-20.567]]]}},{"type":"Feature","properties":{"codigo_ibge":3162948},"geometry":{"type":"Polygon","coordinates":[[[-46.3579,-20.6864],[-46.3545,-20.6994],[-46.3482,-20.7087],[-46.3354,-20.713],[-46.3336,-20.7247],[-46.329,-20.7352],[-46.3316,-20.7483],[-46.3267,-20.7584],[-46.3192,-20.757],[-46.3179,-20.7645],[-46.312,-20.7667],[-46.305,-20.7779],[-46.2955,-20.7786],[-46.2956,-20.7872],[-46.302,-20.799],[-46.2937,-20.8187],[-46.3012,-20.8226],[-46.3002,-20.8301],[-46.2902,-20.8372],[-46.2971,-20.8581],[-46.2814,-20.8629],[-46.2759,-20.8676],[-46.268,-20.866],[-46.2574,-20.8676],[-46.2546,-20.8614],[-46.2585,-20.8474],[-46.2505,-20.8418],[-46.2457,-20.8314],[-46.2275,-20.8293],[-46.2128,-20.8112],[-46.1994,-20.8044],[-46.1928,-20.7976],[-46.1668,-20.8009],[-46.1413,-20.774],[-46.1358,-20.7609],[-46.1354,-20.7469],[-46.1308,-20.7387],[-46.1326,-20.7227],[-46.1289,-20.7173],[-46.1504,-20.6949],[-46.165,-20.6906],[-46.1753,-20.6919],[-46.1863,-20.6981],[-46.1984,-20.6936],[-46.2104,-20.6821],[-46.2184,-20.682],[-46.2407,-20.688],[-46.2512,-20.6845],[-46.2543,-20.6791],[-46.2555,-20.6539],[-46.2613,-20.6527],[-46.2753,-20.6601],[-46.2881,-20.6635],[-46.2981,-20.66],[-46.3058,-20.6627],[-46.316,-20.6713],[-46.3256,-20.6678],[-46.3405,-20.6705],[-46.3414,-20.6769],[-46.3579,-20.6864]]]}},{"type":"Feature","properties":{"codigo_ibge":3163904},"geometry":{"type":"Polygon","coordinates":[[[-46.7303,-21.1873],[-46.7224,-21.1831],[-46.7054,-21.1865],[-46.6993,-21.1898],[-46.6851,-21.1901],[-46.6765,-21.1934],[-46.6668,-21.1931],[-46.6629,-21.1827],[-46.644,-21.1767],[-46.6241,-21.181],[-46.618,-21.1931],[-46.6086,-21.1984],[-46.5971,-21.1962],[-46.5891,-21.1917],[-46.5709,-21.1967],[-46.567,-21.1814],[-46.5705,-21.174],[-46.5678,-21.1622],[-46.5506,-21.1506],[-46.5393,-21.1376],[-46.5429,-21.1199],[-46.5509,-21.117],[-46.5516,-21.1098],[-46.5435,-21.0967],[-46.5512,-21.0951],[-46.552,-21.0858],[-46.5604,-21.0773],[-46.5617,-21.0623],[-46.5854,-21.0465],[-46.6085,-21.0441],[-46.6182,-21.0364],[-46.6196,-21.0255],[-46.6289,-21.0237],[-46.6322,-21.013],[-46.6368,-21.0112],[-46.6427,-21.0332],[-46.6536,-21.0427],[-46.6402,-21.0525],[-46.6419,-21.0703],[-46.6463,-21.0726],[-46.6488,-21.0886],[-46.6617,-21.0931],[-46.6659,-21.099],[-46.6618,-21.1066],[-46.6789,-21.1104],[-46.7179,-21.1081],[-46.7225,-21.1133],[-46.7388,-21.1097],[-46.7497,-21.1125],[-46.7598,-21.1182],[-46.7661,-21.1334],[-46.7626,-21.1374],[-46.7707,-21.15],[-46.7821,-21.1577],[-46.7795,-21.1638],[-46.7684,-21.163],[-46.7478,-21.1724],[-46.7449,-21.1804],[-46.7375,-21.1801],[-46.7303,-21.1873]]]}},{"type":"Feature","properties":{"codigo_ibge":3164308},"geometry":{"type":"Polygon","coordinates":[[[-46.0802,-20.3388],[-46.0778,-20.3294],[-46.0963,-20.319],[-46.1048,-20.3197],[-46.1015,-20.3074],[-46.1097,-20.3001],[-46.1198,-20.3086],[-46.1249,-20.3071],[-46.1299,-20.2978],[-46.1176,-20.2959],[-46.1222,-20.2851],[-46.1398,-20.2841],[-46.1404,-20.2899],[-46.154,-20.2892],[-46.1612,-20.2795],[-46.17,-20.2752],[-46.1679,-20.2554],[-46.1833,-20.2471],[-46.1915,-20.2393],[-46.1962,-20.2431],[-46.2123,-20.2328],[-46.2227,-20.2213],[-46.2188,-20.2097],[-46.2218,-20.1929],[-46.2257,-20.1846],[-46.2343,-20.1832],[-46.2369,-20.1744],[-46.252,-20.1663],[-46.2561,-20.1572],[-46.2756,-20.1421],[-46.2813,-20.1436],[-46.2899,-20.1532],[-46.3024,-20.1498],[-46.3097,-20.1398],[-46.3148,-20.119],[-46.3211,-20.1148],[-46.3303,-20.1029],[-46.3346,-20.1051],[-46.3425,-20.0996],[-46.3394,-20.0943],[-46.3491,-20.0768],[-46.3481,-20.0701],[-46.3537,-20.0559],[-46.3588,-20.0579],[-46.3738,-20.0487],[-46.3714,-20.0346],[-46.3764,-20.0343],[-46.3842,-20.0237],[-46.384,-20.0145],[-46.3926,-20.0159],[-46.3984,-20.005],[-46.405,-20.0002],[-46.4227,-20.0067],[-46.4447,-19.9859],[-46.4517,-19.9822],[-46.4506,-19.9749],[-46.4674,-19.9729],[-46.4757,-19.9696],[-46.4885,-19.9763],[-46.499,-20.0047],[-46.5068,-20.0091],[-46.5193,-20.008],[-46.5258,-20.0101],[-46.5318,-20.0053],[-46.5411,-20.0077],[-46.5483,-20.0003],[-46.5542,-20.0015],[-46.5655,-19.996],[-46.5816,-20.0124],[-46.5964,-20.0111],[-46.6261,-19.9939],[-46.6292,-19.9983],[-46.618,-20.0085],[-46.6293,-20.0257],[-46.6294,-20.0404],[-46.6541,-20.0465],[-46.6613,-20.0499],[-46.6717,-20.0501],[-46.6795,-20.0441],[-46.6974,-20.0485],[-46.7029,-20.0428],[-46.7252,-20.0388],[-46.7281,-20.0338],[-46.7372,-20.03],[-46.7469,-20.0326],[-46.7507,-20.0271],[-46.7645,-20.0258],[-46.7682,-20.0288],[-46.7838,-20.0286],[-46.7882,-20.0242],[-46.8034,-20.0255],[-46.809,-20.0313],[-46.8091,-20.0409],[-46.8233,-20.0503],[-46.8305,-20.0496],[-46.8248,-20.0694],[-46.8284,-20.0693],[-46.8347,-20.0908],[-46.8478,-20.0987],[-46.8524,-20.113],[-46.8473,-20.1259],[-46.827,-20.1422],[-46.8121,-20.1449],[-46.822,-20.1552],[-46.8305,-20.149],[-46.8409,-20.1504],[-46.855,-20.1424],[-46.8635,-20.1417],[-46.8971,-20.1436],[-46.907,-20.1353],[-46.9198,-20.1348],[-46.9298,-20.1491],[-46.927,-20.1592],[-46.9053,-20.1636],[-46.8938,-20.1711],[-46.8945,-20.1774],[-46.9069,-20.1815],[-46.8964,-20.1925],[-46.8874,-20.1931],[-46.8837,-20.1826],[-46.8727,-20.1766],[-46.8671,-20.1776],[-46.8389,-20.1899],[-46.8214,-20.1952],[-46.8013,-20.2111],[-46.7898,-20.2085],[-46.778,-20.2154],[-46.784,-20.2257],[-46.7784,-20.2376],[-46.7827,-20.2419],[-46.7749,-20.2608],[-46.7763,-20.2747],[-46.7582,-20.2729],[-46.7558,-20.2685],[-46.7428,-20.2677],[-46.7125,-20.2732],[-46.7039,-20.2719],[-46.6956,-20.2772],[-46.6755,-20.3022],[-46.6682,-20.3032],[-46.6487,-20.3162],[-46.6347,-20.3239],[-46.611,-20.3343],[-46.6053,-20.3307],[-46.6067,-20.3233],[-46.6003,-20.3216],[-46.5841,-20.336],[-46.5718,-20.3423],[-46.5653,-20.3661],[-46.5411,-20.3707],[-46.5308,-20.3585],[-46.5197,-20.3582],[-46.4998,-20.3778],[-46.4883,-20.3816],[-46.4736,-20.3908],[-46.4644,-20.3909],[-46.4596,-20.3863],[-46.4533,-20.3689],[-46.446,-20.3614],[-46.4325,-20.3532],[-46.4367,-20.3435],[-46.4319,-20.3308],[-46.4249,-20.3333],[-46.4178,-20.3271],[-46.41,-20.3319],[-46.3881,-20.3189],[-46.3846,-20.3261],[-46.3718,-20.3258],[-46.3527,-20.3457],[-46.3464,-20.3473],[-46.333,-20.3566],[-46.3189,-20.358],[-46.3159,-20.354],[-46.3005,-20.3518],[-46.2834,-20.3458],[-46.2798,-20.3376],[-46.2558,-20.3343],[-46.2525,-20.3419],[-46.2442,-20.3331],[-46.2332,-20.3325],[-46.2149,-20.3381],[-46.1948,-20.3385],[-46.1774,-20.344],[-46.1726,-20.3522],[-46.1666,-20.3512],[-46.162,-20.3582],[-46.1514,-20.3554],[-46.1415,-20.3377],[-46.1316,-20.3403],[-46.1178,-20.3346],[-46.1075,-20.3403],[-46.0851,-20.3366],[-46.0802,-20.3388]]]}},{"type":"Feature","properties":{"codigo_ibge":3164704},"geometry":{"type":"Polygon","coordinates":[[[-47.1479,-21.0355],[-47.1336,-21.0306],[-47.1239,-21.0299],[-47.1199,-21.0222],[-47.1081,-21.0148],[-47.0895,-21.0138],[-47.0754,-21.0181],[-47.0611,-21.0109],[-47.0529,-21.0029],[-47.0391,-21.0033],[-47.0252,-20.997],[-47.024,-21.0087],[-47.0193,-21.0137],[-46.9995,-21.0165],[-46.9887,-21.0247],[-46.98,-21.0246],[-46.9769,-21.0299],[-46.965,-21.0326],[-46.956,-21.0397],[-46.9582,-21.0487],[-46.94,-21.0542],[-46.9354,-21.0619],[-46.9264,-21.0671],[-46.9129,-21.0666],[-46.9046,-21.0732],[-46.8919,-21.0654],[-46.8942,-21.0608],[-46.8839,-21.0448],[-46.8835,-21.0359],[-46.8765,-21.0211],[-46.8684,-21.0106],[-46.8601,-21.0095],[-46.8451,-21.0022],[-46.8434,-20.9978],[-46.8236,-20.9977],[-46.8177,-21.0048],[-46.8129,-20.997],[-46.8,-20.983],[-46.7981,-20.9757],[-46.8123,-20.9531],[-46.8102,-20.9376],[-46.8045,-20.9288],[-46.8074,-20.9185],[-46.8244,-20.9246],[-46.8311,-20.9222],[-46.8367,-20.9129],[-46.8449,-20.9156],[-46.8555,-20.9042],[-46.8615,-20.9011],[-46.8635,-20.8933],[-46.8746,-20.8857],[-46.8816,-20.8776],[-46.8963,-20.8652],[-46.8958,-20.8567],[-46.9106,-20.8403],[-46.9199,-20.8228],[-46.9271,-20.8234],[-46.9472,-20.8178],[-46.9553,-20.8099],[-46.9631,-20.7932],[-46.9806,-20.769],[-46.985,-20.7597],[-46.9995,-20.7556],[-47.0144,-20.7468],[-47.018,-20.7345],[-47.0285,-20.7313],[-47.0377,-20.7383],[-47.0363,-20.7504],[-47.0407,-20.757],[-47.0363,-20.7627],[-47.0392,-20.7752],[-47.0434,-20.7798],[-47.0469,-20.7995],[-47.0406,-20.8256],[-47.0317,-20.832],[-47.0381,-20.8358],[-47.0457,-20.8332],[-47.0544,-20.8398],[-47.0564,-20.8461],[-47.0704,-20.8433],[-47.0846,-20.8363],[-47.1077,-20.8505],[-47.118,-20.8467],[-47.1412,-20.8579],[-47.147,-20.8645],[-47.1518,-20.878],[-47.168,-20.8753],[-47.1816,-20.878],[-47.1955,-20.8765],[-47.1975,-20.8632],[-47.2069,-20.8572],[-47.2269,-20.8555],[-47.2274,-20.8565],[-47.24,-20.8853],[-47.2246,-20.9116],[-47.2105,-20.9241],[-47.19,-20.9282],[-47.1926,-20.9421],[-47.1813,-20.9538],[-47.1688,-20.9565],[-47.168,-20.9625],[-47.1533,-20.9709],[-47.1437,-20.9824],[-47.1506,-20.9975],[-47.1505,-21.0073],[-47.157,-21.0188],[-47.1479,-21.0355]]]}},{"type":"Feature","properties":{"codigo_ibge":3165107},"geometry":{"type":"Polygon","coordinates":[[[-47.0285,-20.7313],[-47.0422,-20.722],[-47.0567,-20.7232],[-47.0616,-20.7173],[-47.0764,-20.7133],[-47.0863,-20.6989],[-47.092,-20.6969],[-47.0957,-20.6863],[-47.101,-20.682],[-47.1133,-20.6977],[-47.1153,-20.7072],[-47.1267,-20.7093],[-47.1341,-20.7064],[-47.1474,-20.7075],[-47.1573,-20.7036],[-47.1692,-20.7034],[-47.1731,-20.7119],[-47.1703,-20.7186],[-47.1862,-20.7314],[-47.1766,-20.7359],[-47.1823,-20.7413],[-47.1888,-20.7706],[-47.1953,-20.775],[-47.2048,-20.7743],[-47.2115,-20.7807],[-47.2139,-20.7923],[-47.2249,-20.8009],[-47.2228,-20.8089],[-47.2145,-20.8212],[-47.2145,-20.8272],[-47.2269,-20.8555],[-47.2069,-20.8572],[-47.1975,-20.8632],[-47.1955,-20.8765],[-47.1816,-20.878],[-47.168,-20.8753],[-47.1518,-20.878],[-47.147,-20.8645],[-47.1412,-20.8579],[-47.118,-20.8467],[-47.1077,-20.8505],[-47.0846,-20.8363],[-47.0704,-20.8433],[-47.0564,-20.8461],[-47.0544,-20.8398],[-47.0457,-20.8332],[-47.0381,-20.8358],[-47.0317,-20.832],[-47.0406,-20.8256],[-47.0469,-20.7995],[-47.0434,-20.7798],[-47.0392,-20.7752],[-47.0363,-20.7627],[-47.0407,-20.757],[-47.0363,-20.7504],[-47.0377,-20.7383],[-47.0285,-20.7313]]]}},{"type":"Feature","properties":{"codigo_ibge":3170602},"geometry":{"type":"Polygon","coordinates":[[[-46.4736,-20.3908],[-46.4644,-20.3999],[-46.4531,-20.4046],[-46.446,-20.402],[-46.4393,-20.4081],[-46.4223,-20.4148],[-46.4222,-20.4228],[-46.4334,-20.4339],[-46.4234,-20.4506],[-46.4271,-20.456],[-46.4247,-20.4664],[-46.418,-20.4727],[-46.417,-20.4843],[-46.4025,-20.4932],[-46.3944,-20.4947],[-46.373,-20.5102],[-46.3648,-20.5278],[-46.3463,-20.5321],[-46.3468,-20.5474],[-46.3368,-20.5534],[-46.3157,-20.5537],[-46.2972,-20.5569],[-46.289,-20.5601],[-46.2862,-20.5454],[-46.2873,-20.5364],[-46.2726,-20.5272],[-46.2617,-20.5285],[-46.2539,-20.512],[-46.2481,-20.5079],[-46.2335,-20.5126],[-46.2219,-20.5055],[-46.2357,-20.4937],[-46.2359,-20.4899],[-46.2169,-20.4749],[-46.21,-20.4452],[-46.2212,-20.4482],[-46.2314,-20.4446],[-46.2448,-20.459],[-46.2563,-20.4611],[-46.2601,-20.4509],[-46.266,-20.4482],[-46.2782,-20.4547],[-46.2892,-20.451],[-46.2927,-20.4428],[-46.2883,-20.4332],[-46.2751,-20.4293],[-46.2739,-20.4196],[-46.2674,-20.4167],[-46.2656,-20.4027],[-46.2663,-20.3821],[-46.2576,-20.377],[-46.2503,-20.3787],[-46.2409,-20.3655],[-46.2243,-20.367],[-46.2137,-20.361],[-46.2188,-20.3539],[-46.2149,-20.3381],[-46.2332,-20.3325],[-46.2442,-20.3331],[-46.2525,-20.3419],[-46.2558,-20.3343],[-46.2798,-20.3376],[-46.2834,-20.3458],[-46.3005,-20.3518],[-46.3159,-20.354],[-46.3189,-20.358],[-46.333,-20.3566],[-46.3464,-20.3473],[-46.3527,-20.3457],[-46.3718,-20.3258],[-46.3846,-20.3261],[-46.3881,-20.3189],[-46.41,-20.3319],[-46.4178,-20.3271],[-46.4249,-20.3333],[-46.4319,-20.3308],[-46.4367,-20.3435],[-46.4325,-20.3532],[-46.446,-20.3614],[-46.4533,-20.3689],[-46.4596,-20.3863],[-46.4644,-20.3909],[-46.4736,-20.3908]]]}}]}